DMC3-FM1                
1 40715U 15032A   17346.47236542  .00000037  00000-0  13541-4 0  9990
2 40715  98.0211 240.1908 0014813 290.1704  69.7904 14.73703380130458
